<?xml version="1.0" encoding="UTF-8"?><kml xmlns="http://www.opengis.net/kml/2.2"><Document><name>test</name><Placemark><name>Plot A</name><Polygon><outerBoundaryIs><LinearRing><coordinates>77.59,12.97,0 77.592,12.97,0 77.592,12.972000000000001,0 77.59,12.972000000000001,0 77.59,12.97,0</coordinates></LinearRing></outerBoundaryIs></Polygon></Placemark><Placemark><name>Access road</name><LineString><coordinates>77.59,12.97,0 77.595,12.972,0 77.6,12.972,0</coordinates></LineString></Placemark><Placemark><name>Survey marker</name><Point><coordinates>77.591,12.971,0</coordinates></Point></Placemark></Document></kml>